{"fetched_at":"2026-03-30T13:17:50Z","count":15418,"tles":[{"name":"STARLINK-35014","line1":"1 65429U 25192AB  26087.85008292  .00016152  00000+0  55613-3 0  9999","line2":"2 65429  53.1577 143.6393 0001209  69.9931 290.1200 15.30207776 32315","category":"Starlink"}]}